# From MPEC 2020-FB5
84P/Giclas,e,7.5528,108.1420,281.6822,3.550156,0.1473442,0.51572463,270.1796,06/13.0/2025,2000,g  9.5,8.0
# From unp
85D/Boethin,e,4.1729,65.2966,333.0902,5.046340,0.0869439,0.77588467,154.6427,06/13.0/2025,2000,g  6.5,8.0
# From MPEC 2022-YB4
86P/Wild,e,15.5057,72.0962,181.0629,3.646805,0.1415257,0.36271978,173.6617,06/13.0/2025,2000,g 11.0,6.0
# From MPEC 2020-SI8
87P/Bus,e,2.6682,184.9347,51.8867,4.360155,0.1082558,0.21675065,209.6765,06/13.0/2025,2000,g  7.2,10.0
# From MPC184417
88P/Howell,e,4.3820,56.6687,235.8815,3.108440,0.1798416,0.56323143,309.8620,06/13.0/2025,2000,g 11.0,6.0
# From MPC182887
89P/Russell,e,12.0713,41.3448,250.4258,3.750907,0.1356749,0.40747806,60.1572,06/13.0/2025,2000,g 11.5,6.0
# From MPEC 2022-K19
90P/Gehrels,e,9.6394,13.1865,29.1875,6.054181,0.0661639,0.51062461,192.6055,06/13.0/2025,2000,g  8.5,6.0
# From MPEC 2023-VM5
91P/Russell,e,16.1898,242.4229,357.3335,4.137974,0.1170907,0.25714417,216.1570,06/13.0/2025,2000,g  7.5,6.0
# From MPEC 2014-J58
92P/Sanguin,e,19.4792,181.3630,163.7803,5.344360,0.0797738,0.66004942,299.1807,06/13.0/2025,2000,g 12.0,6.0
# From MPEC 2024-R10
93P/Lovas,e,12.2093,339.5512,75.0228,4.374177,0.1077357,0.61395981,325.1032,06/13.0/2025,2000,g  9.5,6.0
# From MPEC 2024-R10
94P/Russell,e,6.1875,70.8478,92.3750,3.510036,0.1498776,0.36599181,112.9808,06/13.0/2025,2000,g  9.0,6.0
# From MPC 75717
95P/Chiron,e,6.9283,209.1927,339.3547,13.69796,0.0194411,0.37833862,209.6819,06/13.0/2025,2000,g  6.5,2.0
# From MPC182887
96P/Machholz,e,57.5862,93.9627,14.7370,3.031058,0.1867724,0.96170396,161.3106,06/13.0/2025,2000,g 13.0,4.8
# From MPC106348
96P-B/Machholz,e,57.5037,14.5898,94.0157,3.030008,0.1868695,0.96173414,161.4201,06/13.0/2025,2000,g 13.0,4.8
# From MPC103849
96P-C/Machholz,e,58.5311,94.3495,15.5380,3.011920,0.1885553,0.95889850,359.8715,07/14.0/2012,2000,g  9.0,4.0
# From MPEC 2024-GJ3
97P/Metcalf-Brewington,e,17.9382,184.0742,230.1964,4.769876,0.0946114,0.45995215,114.7661,06/13.0/2025,2000,g  5.5,6.0
# From MPEC 2021-W31
98P/Takamizawa,e,10.6477,114.5091,157.7275,3.781095,0.1340534,0.56671078,217.1234,06/13.0/2025,2000,g  9.0,8.0
# From MPEC 2024-R10
99P/Kowal,e,4.3391,28.0656,174.5382,6.093914,0.0655178,0.22874960,76.0630,06/13.0/2025,2000,g  4.5,6.0
# From MPEC 2023-OA6
100P/Hartley,e,25.5674,37.6857,181.9259,3.430343,0.1551307,0.41135762,160.9994,06/13.0/2025,2000,g  9.0,8.0
# From MPEC 2024-R10
101P/Chernykh,e,5.0485,116.1239,277.9820,5.817419,0.0702439,0.59561065,138.9409,06/13.0/2025,2000,g 10.0,4.8
# From MPC105241
101P-B/Chernykh,e,5.0502,278.5076,115.6018,5.832964,0.0699633,0.59582184,137.1426,06/13.0/2025,2000,g  9.0,4.0
# From MPEC 2022-C56
102P/Shoemaker,e,25.8544,339.3961,20.6753,3.820168,0.1320020,0.45600032,211.6638,06/13.0/2025,2000,g  6.5,8.0
# From MPC184417
103P/Hartley,e,13.6079,219.7566,181.3272,3.475632,0.1521085,0.69350916,92.7214,06/13.0/2025,2000,g  8.5,8.0
# From MPEC 2023-G31
104P/Kowal,e,5.7010,207.1840,227.3028,3.208673,0.1714809,0.66590110,213.9347,06/13.0/2025,2000,g 16.0,4.0
# From MPC184417
105P/SingerBrewster,e,9.1673,192.3937,46.3318,3.473055,0.1522778,0.40914378,21.5088,06/13.0/2025,2000,g 11.5,6.0
# From MPEC 2024-R10
106P/Schuster,e,19.5337,48.8659,353.7971,3.768297,0.1347368,0.59353641,187.8101,06/13.0/2025,2000,g 14.0,4.8
# From MPEC 2015-M77
107P/Wilson-Harrington,e,2.7986,266.7277,95.5173,2.626031,0.2316084,0.63096541,237.1116,06/13.0/2025,2000,g  9.0,4.0
# From MPEC 2022-P82
108P/Ciffreo,e,11.4324,50.3013,354.5321,3.743817,0.1360605,0.55569226,186.6169,06/13.0/2025,2000,g  8.0,12.0
# From  105, 420
109P/Swift-Tuttle,e,113.1113,139.7065,153.2782,26.20345,0.0073480,0.96287938,87.1641,06/13.0/2025,2000,g  4.0,6.0
# From MPEC 2023-KD6
110P/Hartley,e,11.7114,287.4820,167.5597,3.603635,0.1440764,0.31921659,191.9740,06/13.0/2025,2000,g  1.0,12.0
# From MPC 75718
111P/Helin-Roman-Crockett,e,4.2262,89.8101,1.4311,4.152988,0.1164563,0.10716851,169.3502,06/13.0/2025,2000,g  5.0,8.0
# From MPEC 2021-S45
112P/Urata-Niijima,e,24.2025,31.8127,21.5507,3.522457,0.1490855,0.59083819,290.5559,06/13.0/2025,2000,g 14.0,6.0
# From MPEC 2024-JU4
113P/Spitaler,e,5.2876,306.6216,115.7359,3.696070,0.1387056,0.41967370,153.5741,06/13.0/2025,2000,g 13.5,4.0
# From MPEC 2023-A50
114P/Wiseman-Skiff,e,18.3039,271.0265,172.8103,3.539955,0.1479815,0.55613967,292.0836,06/13.0/2025,2000,g 11.5,6.0
# From MPEC 2023-J29
115P/Maury,e,11.6810,175.9837,120.9151,4.271103,0.1116591,0.51786125,199.0095,06/13.0/2025,2000,g 10.5,6.0
# From MPEC 2024-RQ6
116P/Wild,e,3.6045,20.9597,173.1586,3.486033,0.1514282,0.37068331,160.8558,06/13.0/2025,2000,g  2.5,10.0
# From MPC182887
117P/Helin-Roman-Alu,e,8.6802,58.8214,224.6877,4.116930,0.1179896,0.25277469,125.8548,06/13.0/2025,2000,g  2.5,8.0
# From MPEC 2024-MB8
118P/Shoemaker-Levy,e,10.0916,142.0549,314.9502,3.348970,0.1608189,0.45380575,149.7638,06/13.0/2025,2000,g 12.0,4.0
# From MPEC 2024-R10
119P/Parker-Hartley,e,7.3928,104.5428,322.2694,3.809289,0.1325679,0.38811288,137.2843,06/13.0/2025,2000,g  3.5,8.0
# From MPEC 2022-CN4
120P/Mueller,e,8.4815,358.7054,36.7836,3.969903,0.1246047,0.37416233,186.5886,06/13.0/2025,2000,g 12.0,4.0
# From MPC184417
121P/Shoemaker-Holt,e,20.1621,94.1051,11.9630,4.589266,0.1002511,0.18671013,71.5100,06/13.0/2025,2000,g  6.5,8.0
# From MPC 75718
122P/de Vico,e,86.0272,79.7417,13.0039,17.63344,0.0133106,0.96259914,144.3832,06/13.0/2025,2000,g  7.5,5.2
# From MPEC 2021-F20
123P/West-Hartley,e,15.2798,45.9011,103.9542,3.883711,0.1287756,0.44453218,299.9648,06/13.0/2025,2000,g 12.2,4.0
# From MPEC 2024-UQ8
124P/Mrkos,e,31.4042,359.9877,185.1171,3.376983,0.1588221,0.48642047,300.3425,06/13.0/2025,2000,g 13.5,2.8
# From MPEC 2024-UA9
125P/Spacewatch,e,9.9858,153.1496,87.1091,3.127816,0.1781732,0.51198748,82.4532,06/13.0/2025,2000,g 13.0,6.0
# From MPEC 2024-JU4
126P/IRAS,e,45.8714,357.8574,356.5603,5.627686,0.0738260,0.69603207,52.3392,06/13.0/2025,2000,g  6.0,8.0
# From MPEC 2024-R10
127P/Holt-Olmstead,e,14.2955,13.6163,6.3396,3.454362,0.1535155,0.35875801,159.3460,06/13.0/2025,2000,g 11.0,6.0
# From MPC 89014
128P/Shoemaker-Holt,e,4.3709,214.3210,210.4921,4.482286,0.1038615,0.32236747,318.5836,06/13.0/2025,2000,g  8.5,4.0
# From MPC184417
129P/Shoemaker-Levy,e,3.4414,184.8495,307.8703,4.294018,0.1107665,0.08592538,102.1884,06/13.0/2025,2000,g 11.0,4.0
# From MPC184417
130P/McNaught-Hughes,e,6.0599,70.1802,246.3109,3.387710,0.1580683,0.46124347,66.9762,06/13.0/2025,2000,g 10.0,6.0
# From MPEC 2025-A40
131P/Mueller,e,7.3618,214.1363,179.2419,3.674874,0.1399073,0.34475700,325.3557,06/13.0/2025,2000,g 11.0,4.0
# From MPEC 2024-BE0
132P/Helin-Roman-Alu,e,5.3778,173.9789,216.5088,3.892389,0.1283452,0.56403216,167.8827,06/13.0/2025,2000,g 11.0,6.0
# From MPC 94676
133P/Elst-Pizarro,e,1.3899,160.1011,131.8706,3.163078,0.1752021,0.15566218,69.8876,06/13.0/2025,2000,g 15.4,2.0
# From MPC 89012
134P/Kowal-Vavrova,e,4.3331,201.9920,18.6580,6.273447,0.0627256,0.58547587,255.2126,06/13.0/2025,2000,g 11.5,4.0
# From MPEC 2024-C04
135P/Shoemaker-Levy,e,6.0630,213.0196,22.3763,3.801568,0.1329719,0.29348163,154.7609,06/13.0/2025,2000,g  7.0,8.0
# From MPC182888
136P/Mueller,e,9.4273,137.4202,225.3178,4.185538,0.1151005,0.29316771,18.4800,06/13.0/2025,2000,g 11.0,4.0
# From MPEC 2023-J29
137P/Shoemaker-Levy,e,4.8598,232.9271,141.2177,4.523708,0.1024383,0.57297412,242.9819,06/13.0/2025,2000,g 11.0,4.0
# From MPEC 2016-U66
138P/Shoemaker-Levy,e,10.0998,309.2718,95.6878,3.617090,0.1432732,0.53154842,319.2673,06/13.0/2025,2000,g 15.0,6.0
# From MPEC 2020-HN5
139P/Vaisala-Oterma,e,2.3374,242.1798,165.9778,4.513656,0.1027806,0.24830824,280.8804,06/13.0/2025,2000,g  9.5,4.0
# From MPEC 2015-E14
140P/Bowell-Skiff,e,3.6964,343.3732,172.1555,6.413170,0.0606869,0.69518023,220.0887,06/13.0/2025,2000,g 11.5,6.0
# From MPEC 2024-R10
141P/Machholz,e,13.9617,241.7761,153.6439,3.057043,0.1843961,0.73589248,302.1046,06/13.0/2025,2000,g 12.0,12.0
# From MPEC 2015-KD9
141P-A/Machholz,e,13.9417,153.5040,241.9276,3.057269,0.1843757,0.73591057,302.0438,06/13.0/2025,2000,g 12.0,12.0
# From MPC 24216
141P-B/Machholz,e,13.9856,153.5801,241.8165,3.055637,0.1845234,0.73567135,303.4703,06/13.0/2025,2000,g  9.0,4.0
# From MPC 37026
141P-D/Machholz,e,13.8335,153.2299,242.1760,3.065788,0.1836077,0.73685569,297.6495,06/13.0/2025,2000,g  9.0,4.0
# From MPEC 2015-R12
141P-E/Machholz,e,12.8152,246.1856,149.2667,3.012914,0.1884620,0.75023267,359.9529,09/19.0/1994,2000,g  9.0,4.0
# From MPEC 2015-R12
141P-F/Machholz,e,12.7898,246.1881,149.2374,3.010224,0.1887147,0.75000946,359.9630,09/19.0/1994,2000,g  9.0,4.0
# From MPEC 2015-R12
141P-G/Machholz,e,12.8259,246.3146,149.0784,3.005818,0.1891298,0.74964304,359.9802,09/19.0/1994,2000,g  9.0,4.0
# From MPC 95735
141P-H/Machholz,e,12.8431,246.0900,149.4500,3.008012,0.1889230,0.74682218,359.9270,08/24.0/2015,2000,g 18.5,4.0
# From MPEC 2022-SU8
141P-I/Machholz,e,13.9417,153.4589,241.9373,3.047732,0.1852418,0.73513900,303.5738,06/13.0/2025,2000,g 17.5,4.0
# From MPEC 2024-C04
142P/Ge-Wang,e,12.2448,175.9596,174.0635,5.003446,0.0880644,0.49596173,131.5424,06/13.0/2025,2000,g  8.5,6.0
# From MPC182888
143P/Kowal-Mrkos,e,5.4475,242.4934,304.3319,4.778016,0.0943697,0.38297299,307.0662,06/13.0/2025,2000,g 13.5,2.0
# From MPEC 2024-YC7
144P/Kushida,e,3.9317,242.9246,216.3597,3.833733,0.1313020,0.63496571,66.1997,06/13.0/2025,2000,g  8.5,8.0
# From MPC108598
145P/Shoemaker-Levy,e,11.2765,26.7936,10.3797,4.130485,0.1174093,0.54247019,332.6549,06/13.0/2025,2000,g 13.5,4.0
# From MPC184418
146P/Shoemaker-LINEAR,e,23.1179,53.3580,317.0439,4.025439,0.1220349,0.64757949,38.0239,06/13.0/2025,2000,g 15.0,4.0
# From MPEC 2024-UQ8
147P/Kushida-Muramatsu,e,2.3115,91.6674,348.6043,4.009770,0.1227510,0.21179812,67.9447,06/13.0/2025,2000,g 14.0,4.0
# From MPEC 2024-JU4
148P/Anderson-LINEAR,e,3.6589,89.1952,8.0807,3.620189,0.1430893,0.55038840,156.6419,06/13.0/2025,2000,g 16.0,2.0
# From MPEC 2023-J29
